ID,FName,MName,LName,Address,City,State,ZipCode
1,Sommer,Liliana,Tibbitts,35607 Culross,Irving,TX,75014
2,Houston,Clay,Mccosker,13944 Nichols,Austin,TX,78714
3,Muriel,Charity,Ngin,18711 Inspirati,Houston,TX,77251
4,Yusuf,Omari,Healey,54701 Kollander,Midkiff,TX,79755
5,Amie,Angelina,Tiznado,11724 Geneva,Girvin,TX,79740
6,Sachar,Noel,Howk,43658 Romanzof,Odessa,TX,79767
7,Launa,Rosemarie,Faulker,97893 Black Pin,Doole,TX,76836
8,Nishu,Lorne,Stankowit,79540 Foothill,Clyde,TX,79510
9,Galatea,Anais,Lady,59780 Kamishak,Amarillo,TX,79184
10,Hadden,Bram,Giacolone,62730 Rustlewoo,Wall,TX,76957
11,Sorley,Felicity,Minecci,90200 Cobblecre,El Paso,TX,79944
12,Natilio,Frederick,Rumple,68711 Rankin,Pleasanton,TX,78064
13,Emmanuel,Eliane,Lazurek,28161 Maritime,Garland,TX,75040
14,Hodgkins,Tao,Lestrange,46500 McMahon,Amarillo,TX,79185
15,Ivory,Janelle,Oeder,19800 Catskill,Flower Mound,TX,75027
16,Bowman,Gregory,Pliml,42088 Jerome,El Paso,TX,88568
17,Pelagia,Bette,Balsis,4320 Taylor,Henrietta,TX,76365
18,Rob,Nathaniel,Sidell,46874 Cosmic,Seadrift,TX,77983
19,Speranza,Leanne,Kirckof,24927 Glenflora,Round Mountain,TX,78663
20,Marton,Donovan,Mundschau,71106 Blacktail,Dallas,TX,75210
21,Arabella,Joy,Wentzell,64770 Friendly,Eola,TX,76937
22,Irving,Miles,Demaria,42317 Cove,London,TX,76854
23,Eilene,Delilah,Mctush,7875 Mockingbi,Arlington,TX,76016
24,Cormac,Judd,Hiske,28763 Meander,San Antonio,TX,78221
25,Twana,Bernadett,Hender,25087 Adak,Chapman Ranch,TX,78347
26,Orville,Teale,Gallegos,87859 Degan,Brownsville,TX,78522
27,Mapiya,Ada,Mittman,85002 Powell,Beaumont,TX,77710
28,Javon,Tobias,Eskra,39620 Petes,San Antonio,TX,78241
29,Kalia,Cassidy,Derastel,89910 Ressel,Dallas,TX,75262
30,Zan,Storm,Sukovaty,65093 Lighthous,Helotes,TX,78023
31,Cheyenne,Amira,Mohseni,36728 Stone,Austin,TX,78735
32,Liberty,William,Hartmann,29800 Kak,Waxahachie,TX,75168
33,Ahonui,Anissa,Mom,2940 Lockheed,Oakland,TX,78951
34,Gullermo,Teale,Flathers,32172 Greenwood,El Paso,TX,88529
35,Easter,Nicoline,Pletz,57535 Dundee,Kingsbury,TX,78638
36,Zethus,Cai,Duskin,76988 Shoshoni,Fulshear,TX,77441
37,Mora,Alanis,Landgren,96941 Camellia,College Station,TX,77844
38,Murdo,Lionel,Brincefie,73812 Opal,Quitman,TX,75783
39,Kalalika,Linda,Langhout,5968 Max,Galveston,TX,77551
40,Camlo,Bran,Gantvoort,60432 Woronzof,Denton,TX,76202
41,Jonie,Simone,Belrose,43739 Kay,Valley Spring,TX,76885
42,Franko,Bruce,Lauinger,51295 Gibson,Fort Worth,TX,76136
43,Enedina,Annette,Niang,54634 Greenwood,Smithville,TX,78957
44,Joshuah,Frederick,Hearne,10944 Baronik,Cameron,TX,76520
45,Chania,Samara,Enock,4223 Canton,Mount Enterprise,TX,75681
46,Tarrus,Deangelo,Scouten,52460 Wondrous,Austin,TX,78758
47,Mitchell,Camille,Fausto,40204 Pinehears,Fort Worth,TX,76107
48,Donaldo,Dai,Chabez,60895 Highgate,Iredell,TX,76649
49,Raza,Mara,Gerrior,78343 Alameda,Texarkana,TX,75501
50,Giovanni,Cole,Warsme,41713 Cloverton,Ennis,TX,75120
51,Gunilla,Layne,Mccourtne,13409 Linden,Stinnett,TX,79083
52,Alois,Roderick,Purtill,94222 Delwood,Houston,TX,77217
53,Raku,Joelle,Divoll,55114 Mockingbi,High Island,TX,77623
54,Otha,Omari,Benincase,10020 Chalet,Austin,TX,78737
55,Ludivina,Dale,Diefenbac,89046 Ginger Le,Houston,TX,77066
56,Elfred,Xavier,Berman,96423 Camellia,San Antonio,TX,78247
57,Sofonisb,Tyne,Douet,62611 Papago,Weesatche,TX,77993
58,Jordyn,William,Sylve,24910 Checkmate,Lewisville,TX,75067
59,Imma,Briallen,Tyminski,95970 Lugene,Port Arthur,TX,77641
60,Jerome,Nathaniel,Mayorca,4558 Jordan,Arlington,TX,76001
61,Ilia,Lorraine,Halcott,17974 Nicolle,Granbury,TX,76048
62,Crews,Tao,Fallago,80476 Barry,Newton,TX,75966
63,Elmer,Abigail,Subido,27102 Wood,Hillsboro,TX,76645
64,Victoria,Kai,Langseth,57250 Tartan,Georgetown,TX,78627
65,Sinako,Marcela,Thurber,77403 Cecilia,Menard,TX,76859
66,Viet,Uriel,Sanagusti,47372 Sara Lynn,Paradise,TX,76073
67,Malalani,Rosaleen,Galinski,89425 Kidron,Scotland,TX,76379
68,Jake,Storm,Laroux,44685 Woodbourn,Quinlan,TX,75474
69,Geraldin,Linnea,Szymula,86162 McDonald,Round Top,TX,78961
70,Rutty,Kai,Barsotti,22814 Snowmass,Denton,TX,76202
71,Annis,Maryam,Younger,53984 Douglas,El Paso,TX,79923
72,Dud,Carl,Caccamise,58610 Monpelier,San Marcos,TX,78666
73,Beitiris,Carly,Nasr,28578 Kemptons,San Antonio,TX,78205
74,Gram,Tao,Hinde,80582 Seldon,Lewisville,TX,75067
75,Huynh,Naomi,Oran,5885 McPhee,San Antonio,TX,78254
76,Arther,Brant,Gariglian,42337 Jean Grey,San Isidro,TX,78588
77,Aphrodit,Margaret,Dowhower,78038 Balfour,Aquilla,TX,76622
78,Chong,Killian,Empleo,21017 Staedem,Dallas,TX,75241
79,Latoyia,Alanna,Mincks,94299 Bowen,Fort Worth,TX,76106
80,Hipolito,Stephen,Terre,40738 Labar,Toyah,TX,79785
81,Ellice,Felicity,Bamford,46995 Silverbel,Imperial,TX,79743
82,Izraeliu,Bran,Readenour,21024 Crow Cree,El Paso,TX,88519
83,Julieta,Miranda,Budak,82458 Jean Grey,Kilgore,TX,75663
84,Rylan,Lear,Bertrano,50249 Neshaminy,Montgomery,TX,77356
85,Honorata,Alondra,Chruch,36961 Tokay,Sabine Pass,TX,77655
86,Damian,Cordell,Auerswald,84070 Romig,Eden,TX,76837
87,Judi,Araceli,Adamyan,97657 Pass,Beaumont,TX,77701
88,Sandor,Stephen,Why,68868 Zurich,Montalba,TX,75853
89,Constanz,Rosemary,Widby,88514 Premier,Brookshire,TX,77423
90,Conan,Laird,Askins,90184 Francesca,Dallas,TX,75287
91,Pelagiya,Caroline,Bodwin,81254 Skookum,Corpus Christi,TX,78418
92,Brett,Harrison,Biggard,46156 Nelson,Utopia,TX,78884
93,Dalili,Ruth,Minden,31291 Dequindre,Beaumont,TX,77701
94,Acar,Sage,Reavis,45958 Irwin,Hext,TX,76848
95,Tandra,Leanne,Ponder,38668 Hamann,Dallas,TX,75209
96,Edwardo,Allen,Schickeda,33235 Snow Flak,Gatesville,TX,76597
97,Cortana,Gabriella,Kvzian,33994 Spartan,Carrollton,TX,75008
98,Veicente,Darius,Schaunt,34545 Muriel,Waelder,TX,78959
99,Iris,Starr,Depsky,89382 Sandlewoo,Blossom,TX,75416
100,Vasilis,Harrison,Terranova,32791 Rue Racin,Humble,TX,77345
